{"type": "FeatureCollection", "features": [ {"type": "Feature", "properties": {"norad_id": 34792, "name": "COSMOS 2251 DEB", "group": "cosmos-2251-debris", "lat": 62.4253784240914, "lon": -71.78451698951008, "alt_km": 704.2428934322725, "timestamp": "2025-12-27T14:26:30.916590+00:00", "meta": {"OBJECT_NAME": "COSMOS 2251 DEB", "OBJECT_ID": "1993-036AAV", "EPOCH": "2025-12-26T20:28:39.708768", "MEAN_MOTION": 14.56080726, "ECCENTRICITY": 0.0012351, "INCLINATION": 74.0179, "RA_OF_ASC_NODE": 142.9205, "ARG_OF_PERICENTER": 238.0565, "MEAN_ANOMALY": 272.7748, "EPHEMERIS_TYPE": 0, "CLASSIFICATION_TYPE": "U", "NORAD_CAT_ID": 34792, "ELEMENT_SET_NO": 999, "REV_AT_EPOCH": 87855, "BSTAR": 0.0014169, "MEAN_MOTION_DOT": 6.229e-05, "MEAN_MOTION_DDOT": 0}, "tle": {"line1": "1 34792U 93036AAV 25360.85323737  .00006229  00000+0  14169-2 0  9991", "line2": "2 34792  74.0179 142.9205 0012351 238.0565 272.7748 14.56080726878558"}}, "geometry": {"type": "Point", "coordinates": [-71.78451698951008, 62.4253784240914]}}, {"type": "Feature", "properties": {"norad_id": 34793, "name": "COSMOS 2251 DEB", "group": "cosmos-2251-debris", "lat": 41.6768347636898, "lon": -122.29146550874081, "alt_km": 727.8020202237603, "timestamp": "2025-12-27T14:26:30.916601+00:00", "meta": {"OBJECT_NAME": "COSMOS 2251 DEB", "OBJECT_ID": "1993-036AAW", "EPOCH": "2025-12-26T21:38:28.912128", "MEAN_MOTION": 14.38666313, "ECCENTRICITY": 0.0050933, "INCLINATION": 74.0014, "RA_OF_ASC_NODE": 224.2033, "ARG_OF_PERICENTER": 14.769, "MEAN_ANOMALY": 4.6796, "EPHEMERIS_TYPE": 0, "CLASSIFICATION_TYPE": "U", "NORAD_CAT_ID": 34793, "ELEMENT_SET_NO": 999, "REV_AT_EPOCH": 87534, "BSTAR": 0.00024861, "MEAN_MOTION_DOT": 7.47e-06, "MEAN_MOTION_DDOT": 0}, "tle": {"line1": "1 34793U 93036AAW 25360.90172352  .00000747  00000+0  24861-3 0  9993", "line2": "2 34793  74.0014 224.2033 0050933  14.7690   4.6796 14.38666313875347"}}, "geometry": {"type": "Point", "coordinates": [-122.29146550874081, 41.6768347636898]}}, {"type": "Feature", "properties": {"norad_id": 34796, "name": "COSMOS 2251 DEB", "group": "cosmos-2251-debris", "lat": -41.79994072977425, "lon": 173.64268136400887, "alt_km": 673.3967825192785, "timestamp": "2025-12-27T14:26:30.916611+00:00", "meta": {"OBJECT_NAME": "COSMOS 2251 DEB", "OBJECT_ID": "1993-036AAZ", "EPOCH": "2025-12-25T13:03:59.133024", "MEAN_MOTION": 14.48745914, "ECCENTRICITY": 0.0100284, "INCLINATION": 74.0282, "RA_OF_ASC_NODE": 192.3362, "ARG_OF_PERICENTER": 291.6358, "MEAN_ANOMALY": 98.4563, "EPHEMERIS_TYPE": 0, "CLASSIFICATION_TYPE": "U", "NORAD_CAT_ID": 34796, "ELEMENT_SET_NO": 999, "REV_AT_EPOCH": 88213, "BSTAR": 0.00055203, "MEAN_MOTION_DOT": 2.189e-05, "MEAN_MOTION_DDOT": 0}, "tle": {"line1": "1 34796U 93036AAZ 25359.54443441  .00002189  00000+0  55203-3 0  9990", "line2": "2 34796  74.0282 192.3362 0100284 291.6358  98.4563 14.48745914882133"}}, "geometry": {"type": "Point", "coordinates": [173.64268136400887, -41.79994072977425]}}, {"type": "Feature", "properties": {"norad_id": 34797, "name": "COSMOS 2251 DEB", "group": "cosmos-2251-debris", "lat": 48.897089341350714, "lon": -126.93355938227374, "alt_km": 714.293316273529, "timestamp": "2025-12-27T14:26:30.916621+00:00", "meta": {"OBJECT_NAME": "COSMOS 2251 DEB", "OBJECT_ID": "1993-036ABA", "EPOCH": "2025-12-22T12:22:54.757056", "MEAN_MOTION": 14.42950692, "ECCENTRICITY": 0.00710542, "INCLINATION": 73.9783, "RA_OF_ASC_NODE": 81.7691, "ARG_OF_PERICENTER": 193.6898, "MEAN_ANOMALY": 166.2334, "EPHEMERIS_TYPE": 0, "CLASSIFICATION_TYPE": "U", "NORAD_CAT_ID": 34797, "ELEMENT_SET_NO": 999, "REV_AT_EPOCH": 87556, "BSTAR": 0.0021692417, "MEAN_MOTION_DOT": 7.461e-05, "MEAN_MOTION_DDOT": 0}, "tle": {"line1": "1 34797U 93036ABA 25356.51591154  .00007461  00000+0  21692-2 0  9992", "line2": "2 34797  73.9783  81.7691 0071054 193.6898 166.2334 14.42950692875560"}}, "geometry": {"type": "Point", "coordinates": [-126.93355938227374, 48.897089341350714]}}, {"type": "Feature", "properties": {"norad_id": 34814, "name": "COSMOS 2251 DEB", "group": "cosmos-2251-debris", "lat": 27.274520620226586, "lon": 109.30986617978189, "alt_km": 733.8492072513591, "timestamp": "2025-12-27T14:26:30.916632+00:00", "meta": {"OBJECT_NAME": "COSMOS 2251 DEB", "OBJECT_ID": "1993-036ABD", "EPOCH": "2025-12-26T21:17:53.689344", "MEAN_MOTION": 14.3695303, "ECCENTRICITY": 0.005524, "INCLINATION": 73.896, "RA_OF_ASC_NODE": 299.2, "ARG_OF_PERICENTER": 185.6833, "MEAN_ANOMALY": 232.3417, "EPHEMERIS_TYPE": 0, "CLASSIFICATION_TYPE": "U", "NORAD_CAT_ID": 34814, "ELEMENT_SET_NO": 999, "REV_AT_EPOCH": 87536, "BSTAR": 0.00081923, "MEAN_MOTION_DOT": 2.443e-05, "MEAN_MOTION_DDOT": 0}, "tle": {"line1": "1 34814U 93036ABD 25360.88742696  .00002443  00000+0  81923-3 0  9995", "line2": "2 34814  73.8960 299.2000 0055240 185.6833 232.3417 14.36953030875362"}}, "geometry": {"type": "Point", "coordinates": [109.30986617978189, 27.274520620226586]}}, {"type": "Feature", "properties": {"norad_id": 34815, "name": "COSMOS 2251 DEB", "group": "cosmos-2251-debris", "lat": 3.9238670415968144, "lon": -146.25994011765303, "alt_km": 632.8754375677818, "timestamp": "2025-12-27T14:26:30.916642+00:00", "meta": {"OBJECT_NAME": "COSMOS 2251 DEB", "OBJECT_ID": "1993-036ABE", "EPOCH": "2025-12-26T23:48:28.029312", "MEAN_MOTION": 14.78470868, "ECCENTRICITY": 0.00586391, "INCLINATION": 74.0441, "RA_OF_ASC_NODE": 213.8127, "ARG_OF_PERICENTER": 279.95, "MEAN_ANOMALY": 79.506, "EPHEMERIS_TYPE": 0, "CLASSIFICATION_TYPE": "U", "NORAD_CAT_ID": 34815, "ELEMENT_SET_NO": 999, "REV_AT_EPOCH": 88838, "BSTAR": 0.00086486285, "MEAN_MOTION_DOT": 6.465e-05, "MEAN_MOTION_DDOT": 0}, "tle": {"line1": "1 34815U 93036ABE 25360.99199108  .00006465  00000+0  86486-3 0  9999", "line2": "2 34815  74.0441 213.8127 0058639 279.9500  79.5060 14.78470868888385"}}, "geometry": {"type": "Point", "coordinates": [-146.25994011765303, 3.9238670415968144]}}, {"type": "Feature", "properties": {"norad_id": 34816, "name": "COSMOS 2251 DEB", "group": "cosmos-2251-debris", "lat": 16.078739570760142, "lon": 123.65222747292249, "alt_km": 1306.844132549104, "timestamp": "2025-12-27T14:26:30.916652+00:00", "meta": {"OBJECT_NAME": "COSMOS 2251 DEB", "OBJECT_ID": "1993-036ABF", "EPOCH": "2025-12-27T02:51:15.609888", "MEAN_MOTION": 13.58367735, "ECCENTRICITY": 0.03728001, "INCLINATION": 73.8876, "RA_OF_ASC_NODE": 119.6608, "ARG_OF_PERICENTER": 181.6545, "MEAN_ANOMALY": 356.2614, "EPHEMERIS_TYPE": 0, "CLASSIFICATION_TYPE": "U", "NORAD_CAT_ID": 34816, "ELEMENT_SET_NO": 999, "REV_AT_EPOCH": 82978, "BSTAR": 0.0017334466, "MEAN_MOTION_DOT": 1.963e-05, "MEAN_MOTION_DDOT": 0}, "tle": {"line1": "1 34816U 93036ABF 25361.11893067  .00001963  00000+0  17334-2 0  9993", "line2": "2 34816  73.8876 119.6608 0372800 181.6545 356.2614 13.58367735829783"}}, "geometry": {"type": "Point", "coordinates": [123.65222747292249, 16.078739570760142]}}, {"type": "Feature", "properties": {"norad_id": 34818, "name": "COSMOS 2251 DEB", "group": "cosmos-2251-debris", "lat": -43.379176475598726, "lon": 105.30787221886946, "alt_km": 782.6023442116357, "timestamp": "2025-12-27T14:26:30.916663+00:00", "meta": {"OBJECT_NAME": "COSMOS 2251 DEB", "OBJECT_ID": "1993-036ABH", "EPOCH": "2025-12-26T04:41:15.553824", "MEAN_MOTION": 14.36982494, "ECCENTRICITY": 0.00246969, "INCLINATION": 74.0365, "RA_OF_ASC_NODE": 272.1995, "ARG_OF_PERICENTER": 344.861, "MEAN_ANOMALY": 168.1819, "EPHEMERIS_TYPE": 0, "CLASSIFICATION_TYPE": "U", "NORAD_CAT_ID": 34818, "ELEMENT_SET_NO": 999, "REV_AT_EPOCH": 87563, "BSTAR": 0.00018428348, "MEAN_MOTION_DOT": 5.22e-06, "MEAN_MOTION_DDOT": 0}, "tle": {"line1": "1 34818U 93036ABH 25360.19531891  .00000522  00000+0  18428-3 0  9992", "line2": "2 34818  74.0365 272.1995 0024696 344.8610 168.1819 14.36982494875632"}}, "geometry": {"type": "Point", "coordinates": [105.30787221886946, -43.379176475598726]}}, {"type": "Feature", "properties": {"norad_id": 34819, "name": "COSMOS 2251 DEB", "group": "cosmos-2251-debris", "lat": 26.586511936136176, "lon": -74.16142033777601, "alt_km": 672.5038504254089, "timestamp": "2025-12-27T14:26:30.916673+00:00", "meta": {"OBJECT_NAME": "COSMOS 2251 DEB", "OBJECT_ID": "1993-036ABJ", "EPOCH": "2025-12-26T16:44:10.271904", "MEAN_MOTION": 14.6418179, "ECCENTRICITY": 0.00151285, "INCLINATION": 74.0184, "RA_OF_ASC_NODE": 115.8233, "ARG_OF_PERICENTER": 211.1605, "MEAN_ANOMALY": 215.9065, "EPHEMERIS_TYPE": 0, "CLASSIFICATION_TYPE": "U", "NORAD_CAT_ID": 34819, "ELEMENT_SET_NO": 999, "REV_AT_EPOCH": 88433, "BSTAR": 0.001725678, "MEAN_MOTION_DOT": 9.077e-05, "MEAN_MOTION_DDOT": 0}, "tle": {"line1": "1 34819U 93036ABJ 25360.69734111  .00009077  00000+0  17257-2 0  9990", "line2": "2 34819  74.0184 115.8233 0015128 211.1605 215.9065 14.64181790884332"}}, "geometry": {"type": "Point", "coordinates": [-74.16142033777601, 26.586511936136176]}}, {"type": "Feature", "properties": {"norad_id": 34823, "name": "COSMOS 2251 DEB", "group": "cosmos-2251-debris", "lat": 65.47711409862367, "lon": 112.99125724653511, "alt_km": 689.5701857713739, "timestamp": "2025-12-27T14:26:30.916684+00:00", "meta": {"OBJECT_NAME": "COSMOS 2251 DEB", "OBJECT_ID": "1993-036ABN", "EPOCH": "2025-12-27T05:51:38.955168", "MEAN_MOTION": 14.55015651, "ECCENTRICITY": 0.01536499, "INCLINATION": 74.0413, "RA_OF_ASC_NODE": 74.8209, "ARG_OF_PERICENTER": 155.9615, "MEAN_ANOMALY": 204.8823, "EPHEMERIS_TYPE": 0, "CLASSIFICATION_TYPE": "U", "NORAD_CAT_ID": 34823, "ELEMENT_SET_NO": 999, "REV_AT_EPOCH": 88592, "BSTAR": 0.00054563008, "MEAN_MOTION_DOT": 2.724e-05, "MEAN_MOTION_DDOT": 0}, "tle": {"line1": "1 34823U 93036ABN 25361.24420087  .00002724  00000+0  54563-3 0  9995", "line2": "2 34823  74.0413  74.8209 0153649 155.9615 204.8823 14.55015651885923"}}, "geometry": {"type": "Point", "coordinates": [112.99125724653511, 65.47711409862367]}}]}